APSTAR 9                
1 40982U 15059A   17345.38247092 -.00000273  00000-0  00000-0 0  9991
2 40982   0.0155 296.7999 0002088 341.8881  81.2936  1.00272967  7974
